STARLINK-30803          
1 58157U 23166H   26068.72492175  .00000230  00000+0  19910-4 0  9991
2 58157  53.1605 219.5071 0001194  81.5677 278.5459 15.30189116133037
HAWK-11A                
1 62382U 24247F   26068.51231358  .00009457  00000+0  34106-3 0  9991
2 62382  44.9941 114.3328 0005466 327.3713  32.6832 15.28849427 67741
